*******************************************************************************
Ephemeris / PORT_LOGIN Thu Oct  8 16:10:48 2015 Pasadena, USA    / Horizons    
*******************************************************************************
Target body name: Triton (801)                    {source: NEP081}
Center body name: Neptune (899)                   {source: NEP081}
Center-site name: BODY CENTER
*******************************************************************************
Start time      : A.D. 1900-Jan-01 00:00:00.0000 CT 
Stop  time      : A.D. 2099-Dec-31 00:00:00.0000 CT 
Step-size       : 14400 minutes
*******************************************************************************
Center geodetic : 0.00000000,0.00000000,0.0000000 {E-lon(deg),Lat(deg),Alt(km)}
Center cylindric: 0.00000000,0.00000000,0.0000000 {E-lon(deg),Dxy(km),Dz(km)}
Center radii    : 24764.0 x 24764.0 x 24341.0 km  {Equator, meridian, pole}    
Output units    : AU-D                                                         
Output format   : 03
Reference frame : ICRF/J2000.0                                                 
Output type     : GEOMETRIC cartesian states
Coordinate systm: Ecliptic and Mean Equinox of Reference Epoch                 
*******************************************************************************
JDCT 
   X     Y     Z
   VX    VY    VZ
   LT    RG    RR
*******************************************************************************
$$SOE
2452840.500000000 = A.D. 2003-Jul-20 00:00:00.0000 (CT)
   1.852920040221354E-03 -1.599310402335303E-04 -1.471321835942100E-03
  -1.074567186356504E-03 -1.995520309178957E-03 -1.136360362606770E-03
   1.369623538253738E-05  2.371429644329368E-03  4.376976704472376E-09
2452850.500000000 = A.D. 2003-Jul-30 00:00:00.0000 (CT)
   4.040015083089077E-04  1.828760954123431E-03  1.454641449634471E-03
   2.211811245202390E-03  4.346339984753013E-04 -1.160689942114492E-03
   1.369609782110552E-05  2.371405826305778E-03  1.225641290296000E-08
2452860.500000000 = A.D. 2003-Aug-09 00:00:00.0000 (CT)
  -2.094690917943398E-03 -9.356985118170972E-04  6.002813846200462E-04
  -2.502995617123029E-04  1.735311242729762E-03  1.831465393631042E-03
   1.369613909567814E-05  2.371412972776494E-03 -1.406178745950721E-08
2452870.500000000 = A.D. 2003-Aug-19 00:00:00.0000 (CT)
   8.506625019069273E-04 -1.268360270248447E-03 -1.814198101487620E-03
  -2.061662367864921E-03 -1.474290175655601E-03  6.402833369373458E-05
   1.369623618713055E-05  2.371429783640357E-03 -3.316035249538104E-09
2452880.500000000 = A.D. 2003-Aug-29 00:00:00.0000 (CT)
   1.585009390201534E-03  1.695625297671055E-03  4.860162904801317E-04
   1.485082652440728E-03 -8.522140845417551E-04 -1.869880895404244E-03
   1.369615403035745E-05  2.371415558636057E-03  1.754738396055160E-08
2452890.500000000 = A.D. 2003-Sep-08 00:00:00.0000 (CT)
  -1.799887459373961E-03  2.525974032653438E-04  1.523207708351816E-03
   1.171993416151628E-03  1.984994159532683E-03  1.055685150043709E-03
   1.369609349117358E-05  2.371405076601304E-03 -1.017281545437571E-08
2452900.500000000 = A.D. 2003-Sep-18 00:00:00.0000 (CT)
  -5.067901516685750E-04 -1.847123111465059E-03 -1.398199609403928E-03
  -2.186885482832703E-03 -3.369353291787633E-04  1.237786210330362E-03
   1.369621545617405E-05  2.371426194186510E-03 -8.069695677510373E-09
2452910.500000000 = A.D. 2003-Sep-28 00:00:00.0000 (CT)
   2.103267317797579E-03  8.539649772311394E-04 -6.860524443272017E-04
   1.379379253059269E-04 -1.783303463675223E-03 -1.796929462521271E-03
   1.369620979901631E-05  2.371425214680010E-03  1.243069915765559E-08
2452920.500000000 = A.D. 2003-Oct-08 00:00:00.0000 (CT)
  -7.529666631869069E-04  1.335652333573336E-03  1.809038977144790E-03
   2.104061696372837E-03  1.405335841530531E-03 -1.618253084352480E-04
   1.369607636429296E-05  2.371402111173850E-03  1.472162568294181E-09
2452930.500000000 = A.D. 2003-Oct-18 00:00:00.0000 (CT)
  -1.652046142450635E-03 -1.654258640152505E-03 -3.972462129052055E-04
  -1.398154790606725E-03  9.415068880427250E-04  1.893911325082129E-03
   1.369617948983179E-05  2.371419966807391E-03 -1.213509400173872E-08
2452940.500000000 = A.D. 2003-Oct-28 00:00:00.0000 (CT)
   1.742392422050863E-03 -3.447249672600449E-04 -1.571277646203046E-03
  -1.266434828426772E-03 -1.969505122501252E-03 -9.722635658299243E-04
   1.369623725653239E-05  2.371429968801545E-03  3.014217987049952E-09
2452950.500000000 = A.D. 2003-Nov-07 00:00:00.0000 (CT)
   6.083184332383287E-04  1.860900262156447E-03  1.338121891125682E-03
   2.156528644892088E-03  2.383324193624059E-04 -1.311791137183350E-03
   1.369610476756889E-05  2.371407029048628E-03  1.372641479126060E-08
2452960.500000000 = A.D. 2003-Nov-17 00:00:00.0000 (CT)
  -2.106549214655082E-03 -7.701418041061180E-04  7.700164715672534E-04
  -2.533640836308652E-05  1.826902274563085E-03  1.757843104858321E-03
   1.369613163243891E-05  2.371411680556679E-03 -1.403271586575448E-08
2452970.500000000 = A.D. 2003-Nov-27 00:00:00.0000 (CT)
   6.534701439336187E-04 -1.399687670490958E-03 -1.799313416832279E-03
  -2.141123813070007E-03 -1.332845509162266E-03  2.592192834323226E-04
   1.369623418663660E-05  2.371429437265566E-03 -4.130438865956501E-09
2452980.500000000 = A.D. 2003-Dec-07 00:00:00.0000 (CT)
   1.714971953057053E-03  1.608732316476957E-03  3.073612426909776E-04
   1.307736117544469E-03 -1.028552242026901E-03 -1.913137694111319E-03
   1.369616334313629E-05  2.371417171093728E-03  1.735399173039652E-08
2452990.500000000 = A.D. 2003-Dec-17 00:00:00.0000 (CT)
  -1.680553627379684E-03  4.359958321974391E-04  1.615303368304608E-03
   1.357668683570255E-03  1.949179139405049E-03  8.863846285805734E-04
   1.369608836998166E-05  2.371404189894410E-03 -8.844467535562126E-09
2453000.500000000 = A.D. 2003-Dec-27 00:00:00.0000 (CT)
  -7.082129016837036E-04 -1.870098322246972E-03 -1.274686377507706E-03
  -2.120769357189515E-03 -1.391268527433518E-04  1.382424503844302E-03
   1.369621109123124E-05  2.371425438420088E-03 -8.673615005805630E-09
2453010.500000000 = A.D. 2004-Jan-06 00:00:00.0000 (CT)
   2.104585404983822E-03  6.843148125475928E-04 -8.521127541383448E-04
  -8.731741750171291E-05 -1.865992513956599E-03 -1.714232676459491E-03
   1.369621599299162E-05  2.371426287133590E-03  1.106814644851855E-08
2453020.500000000 = A.D. 2004-Jan-16 00:00:00.0000 (CT)
  -5.523532722947751E-04  1.460266932012403E-03  1.784958094014187E-03
   2.172863375072072E-03  1.257046337350165E-03 -3.559896447979937E-04
   1.369607767294156E-05  2.371402337759332E-03  3.544359250148934E-09
2453030.500000000 = A.D. 2004-Jan-26 00:00:00.0000 (CT)
  -1.773521378913448E-03 -1.559251402140519E-03 -2.167586103035715E-04
  -1.214132060576578E-03  1.113047391553671E-03  1.927483058434570E-03
   1.369617297825022E-05  2.371418839361990E-03 -1.268810113391316E-08
2453040.500000000 = A.D. 2004-Feb-05 00:00:00.0000 (CT)
   1.614556223473177E-03 -5.262692433441830E-04 -1.655273374586624E-03
  -1.445446040133534E-03 -1.923972110703310E-03 -7.981948302495566E-04
   1.369623842912178E-05  2.371430171829105E-03  1.727804476525457E-09
2453050.500000000 = A.D. 2004-Feb-15 00:00:00.0000 (CT)
   8.063464563491113E-04  1.874647351960756E-03  1.207923962785210E-03
   2.079740602646572E-03  3.949888198842262E-05 -1.449596559171740E-03
   1.369611244460646E-05  2.371408358286478E-03  1.497818786749947E-08
2453060.500000000 = A.D. 2004-Feb-25 00:00:00.0000 (CT)
  -2.097333681428629E-03 -5.968158390864081E-04  9.319815178413103E-04
   1.996525095135478E-04  1.900489817669178E-03  1.666285786219523E-03
   1.369612421392137E-05  2.371410396080183E-03 -1.383218767195841E-08
2453070.500000000 = A.D. 2004-Mar-06 00:00:00.0000 (CT)
   4.499441924980246E-04 -1.517275950849940E-03 -1.766097256531101E-03
  -2.199098206611084E-03 -1.178083141024511E-03  4.518535538313900E-04
   1.369623178891187E-05  2.371429022112399E-03 -4.879165502382605E-09
2453080.500000000 = A.D. 2004-Mar-16 00:00:00.0000 (CT)
   1.827656423963260E-03  1.505838226241145E-03  1.254995311075613E-04
   1.117494419971058E-03 -1.194864202724687E-03 -1.936927973099612E-03
   1.369617247689724E-05  2.371418752555412E-03  1.691449899173855E-08
2453090.500000000 = A.D. 2004-Mar-26 00:00:00.0000 (CT)
  -1.544538238426629E-03  6.152399663848702E-04  1.690986593934282E-03
   1.529581496498482E-03  1.894037771418422E-03  7.079843242419253E-04
   1.369608400463788E-05  2.371403434058565E-03 -7.326591342522588E-09
2453100.500000000 = A.D. 2004-Apr-05 00:00:00.0000 (CT)
  -9.023509705190986E-04 -1.874582248385672E-03 -1.138138342895675E-03
  -2.033516922763799E-03  6.023370638583924E-05  1.513045373791358E-03
   1.369620641214979E-05  2.371424628262250E-03 -9.286559245764198E-09
2453110.500000000 = A.D. 2004-Apr-15 00:00:00.0000 (CT)
   2.084860670915722E-03  5.077411174973249E-04 -1.009565274773584E-03
  -3.114710055053389E-04 -1.930283119723914E-03 -1.614041878923478E-03
   1.369622143411565E-05  2.371427229235012E-03  9.646169055246624E-09
2453120.500000000 = A.D. 2004-Apr-25 00:00:00.0000 (CT)
  -3.464207917019144E-04  1.570536234798377E-03  1.742687465917664E-03
   2.219870968429986E-03  1.096182624100216E-03 -5.466108043783893E-04
   1.369608009146972E-05  2.371402756514501E-03  5.598045595181235E-09
2453130.500000000 = A.D. 2004-May-05 00:00:00.0000 (CT)
  -1.877141899027374E-03 -1.448725276482003E-03 -3.398659133204978E-05
  -1.018156546308238E-03  1.273721637349932E-03  1.941438130554835E-03
   1.369616617416935E-05  2.371417661271908E-03 -1.319157178747832E-08
2453140.500000000 = A.D. 2004-May-15 00:00:00.0000 (CT)
   1.470707835442438E-03 -7.027642933597060E-04 -1.722446601734720E-03
  -1.609824253181562E-03 -1.859353948335807E-03 -6.159232047081292E-04
   1.369623894692351E-05  2.371430261483696E-03  5.278027751259976E-10
